NORAD_CAT_ID,OBJECT_NAME,OBJECT_TYPE,EPOCH,MEAN_MOTION,ECCENTRICITY,INCLINATION,RA_OF_ASC_NODE,ARG_OF_PERICENTER,MEAN_ANOMALY,BSTAR,MEAN_MOTION_DOT,MEAN_MOTION_DDOT,TLE_LINE0,TLE_LINE1,TLE_LINE2,SEMIMAJOR_AXIS,PERIOD,APOGEE,PERIGEE,DECAYED
53244.0,STARLINK-4125,PAYLOAD,2023-10-06 12:40:11,15.0883395,0.0001417,53.2162,217.764,99.6606,260.4547,6.6852e-05,7.76e-06,0.0,0 STARLINK-4125,1 53244U 22086C   23279.52791239  .00000776  00000-0  66852-4 0  9998,2 53244  53.2162 217.7640 0001417  99.6606 260.4547 15.08833950 67615,6917.899,95.438,540.744,538.784,0.0
53244.0,STARLINK-4125,PAYLOAD,2023-10-07 04:34:02,15.08849178,0.0001353,53.2166,214.7919,102.8317,257.2826,0.00015997,2.26e-05,0.0,0 STARLINK-4125,1 53244U 22086C   23280.19030571  .00002260  00000-0  15997-3 0  9991,2 53244  53.2166 214.7919 0001353 102.8317 257.2826 15.08849178 67219,6917.852,95.437,540.653,538.781,0.0
53244.0,STARLINK-4125,PAYLOAD,2023-10-07 12:30:58,15.08844176,0.0001228,53.2164,213.3062,100.1687,259.9443,4.8053e-05,4.77e-06,0.0,0 STARLINK-4125,1 53244U 22086C   23280.52150678  .00000477  00000-0  48053-4 0  9997,2 53244  53.2164 213.3062 0001228 100.1687 259.9443 15.08844176 67760,6917.868,95.437,540.582,538.883,0.0
53244.0,STARLINK-4125,PAYLOAD,2023-10-07 20:27:54,15.08837744,0.000187,53.217,211.8199,92.5269,267.5937,-6.6454e-05,-1.346e-05,0.0,0 STARLINK-4125,1 53244U 22086C   23280.85271515 -.00001346  00000-0 -66454-4 0  9990,2 53244  53.2170 211.8199 0001870  92.5269 267.5937 15.08837744 67816,6917.887,95.438,541.046,538.459,0.0
53244.0,STARLINK-4125,PAYLOAD,2023-10-08 02:49:26,15.08846946,0.0001125,53.2173,210.6285,92.5267,267.5854,4.2118e-05,3.83e-06,0.0,0 STARLINK-4125,1 53244U 22086C   23281.11767090  .00000383  00000-0  42118-4 0  9997,2 53244  53.2173 210.6285 0001125  92.5267 267.5854 15.08846946 67354,6917.859,95.437,540.502,538.946,0.0
53244.0,STARLINK-4125,PAYLOAD,2023-10-08 12:21:46,15.08841919,0.0001544,53.2175,208.8445,88.3586,271.7583,-1.324e-05,-4.99e-06,0.0,0 STARLINK-4125,1 53244U 22086C   23281.51511602 -.00000499  00000-0 -13240-4 0  9991,2 53244  53.2175 208.8445 0001544  88.3586 271.7583 15.08841919 67918,6917.875,95.437,540.808,538.671,0.0
53244.0,STARLINK-4125,PAYLOAD,2023-10-08 20:18:41,15.08838678,0.0001351,53.2174,207.357,92.2678,267.8469,0.00015578,2.192e-05,0.0,0 STARLINK-4125,1 53244U 22086C   23281.84631519  .00002192  00000-0  15578-3 0  9992,2 53244  53.2174 207.3570 0001351  92.2678 267.8469 15.08838678 67964,6917.884,95.438,540.684,538.815,0.0
53244.0,STARLINK-4125,PAYLOAD,2023-10-09 02:40:13,15.08858126,0.0001253,53.2166,206.1684,98.6933,261.4201,0.00022323,3.268e-05,0.0,0 STARLINK-4125,1 53244U 22086C   23282.11126367  .00003268  00000-0  22323-3 0  9994,2 53244  53.2166 206.1684 0001253  98.6933 261.4201 15.08858126 67507,6917.825,95.436,540.557,538.823,0.0
53244.0,STARLINK-4125,PAYLOAD,2023-10-09 12:12:33,15.08830505,0.0002059,53.2164,204.3848,79.2197,280.9026,-0.00010003,-1.879e-05,0.0,0 STARLINK-4125,1 53244U 22086C   23282.50872096 -.00001879  00000-0 -10003-3 0  9994,2 53244  53.2164 204.3848 0002059  79.2197 280.9026 15.08830505 68063,6917.909,95.438,541.199,538.35,0.0
53244.0,STARLINK-4125,PAYLOAD,2023-10-09 18:34:06,15.08829435,0.0001998,53.2184,203.1968,78.5237,281.598,1.7582e-05,-8e-08,0.0,0 STARLINK-4125,1 53244U 22086C   23282.77368336 -.00000008  00000-0  17582-4 0  9992,2 53244  53.2184 203.1968 0001998  78.5237 281.5980 15.08829435 67608,6917.913,95.438,541.16,538.395,0.0
53244.0,STARLINK-4125,PAYLOAD,2023-10-10 04:06:24,15.08845918,0.0001495,53.2171,201.4086,82.6307,277.4855,0.00015159,2.126e-05,0.0,0 STARLINK-4125,1 53244U 22086C   23283.17111444  .00002126  00000-0  15159-3 0  9992,2 53244  53.2171 201.4086 0001495  82.6307 277.4855 15.08845918 67667,6917.862,95.437,540.762,538.693,0.0
53244.0,STARLINK-4125,PAYLOAD,2023-10-10 12:03:20,15.08839909,0.0001306,53.2167,199.9241,91.5052,268.609,2.5894e-05,1.24e-06,0.0,0 STARLINK-4125,1 53244U 22086C   23283.50231788  .00000124  00000-0  25894-4 0  9997,2 53244  53.2167 199.9241 0001306  91.5052 268.6090 15.08839909 68211,6917.881,95.438,540.649,538.842,0.0
53244.0,STARLINK-4125,PAYLOAD,2023-10-10 18:24:53,15.08834356,0.0001296,53.2169,198.7353,90.7963,269.3177,3.6268e-05,2.89e-06,0.0,0 STARLINK-4125,1 53244U 22086C   23283.76728220  .00000289  00000-0  36268-4 0  9996,2 53244  53.2169 198.7353 0001296  90.7963 269.3177 15.08834356 67757,6917.898,95.438,540.659,538.866,0.0
53244.0,STARLINK-4125,PAYLOAD,2023-10-11 00:46:25,15.08841711,0.000158,53.2164,197.5475,84.3715,275.7457,2.4016e-05,9.4e-07,0.0,0 STARLINK-4125,1 53244U 22086C   23284.03224008  .00000094  00000-0  24016-4 0  9994,2 53244  53.2164 197.5475 0001580  84.3715 275.7457 15.08841711 67793,6917.875,95.437,540.833,538.647,0.0
53244.0,STARLINK-4125,PAYLOAD,2023-10-11 11:54:07,15.08845474,0.0001586,53.2166,195.466,80.6681,279.449,6.3018e-05,7.15e-06,0.0,0 STARLINK-4125,1 53244U 22086C   23284.49591863  .00000715  00000-0  63018-4 0  9995,2 53244  53.2166 195.4660 0001586  80.6681 279.4490 15.08845474 68367,6917.864,95.437,540.826,538.631,0.0
53244.0,STARLINK-4125,PAYLOAD,2023-10-11 18:15:40,15.08832576,0.0001717,53.2174,194.276,92.8787,267.2402,0.00016241,2.297e-05,0.0,0 STARLINK-4125,1 53244U 22086C   23284.76088775  .00002297  00000-0  16241-3 0  9990,2 53244  53.2174 194.2760 0001717  92.8787 267.2402 15.08832576 67908,6917.903,95.438,540.956,538.58,0.0
53244.0,STARLINK-4125,PAYLOAD,2023-10-12 03:47:58,15.08844181,0.0001855,53.217,192.4868,117.0401,243.078,0.00011064,1.473e-05,0.0,0 STARLINK-4125,1 53244U 22086C   23285.15832087  .00001473  00000-0  11064-3 0  9990,2 53244  53.2170 192.4868 0001855 117.0401 243.0780 15.08844181 67961,6917.868,95.437,541.016,538.449,0.0
53244.0,STARLINK-4125,PAYLOAD,2023-10-12 22:52:36,15.08839444,0.0001587,53.2176,188.9187,111.1073,249.0089,0.00019059,2.746e-05,0.0,0 STARLINK-4125,1 53244U 22086C   23285.95320186  .00002746  00000-0  19059-3 0  9996,2 53244  53.2176 188.9187 0001587 111.1073 249.0089 15.08839444 68586,6917.882,95.438,540.845,538.649,0.0
53244.0,STARLINK-4125,PAYLOAD,2023-10-13 03:38:45,15.08853296,0.0001515,53.2163,188.0282,92.8416,267.2749,0.00022281,3.261e-05,0.0,0 STARLINK-4125,1 53244U 22086C   23286.15191666  .00003261  00000-0  22281-3 0  9992,2 53244  53.2163 188.0282 0001515  92.8416 267.2749 15.08853296 68616,6917.84,95.437,540.753,538.657,0.0
53244.0,STARLINK-4125,PAYLOAD,2023-10-13 21:08:00,15.08837925,0.0001578,53.2163,184.7548,102.2848,257.8321,9.4976e-05,1.224e-05,0.0,0 STARLINK-4125,1 53244U 22086C   23286.88056393  .00001224  00000-0  94976-4 0  9997,2 53244  53.2163 184.7548 0001578 102.2848 257.8321 15.08837925 68722,6917.887,95.438,540.843,538.66,0.0
53244.0,STARLINK-4125,PAYLOAD,2023-10-14 03:29:32,15.08858563,0.0001442,53.2165,183.5679,92.966,267.1497,0.00028417,4.24e-05,0.0,0 STARLINK-4125,1 53244U 22086C   23287.14551266  .00004240  00000-0  28417-3 0  9993,2 53244  53.2165 183.5679 0001442  92.9660 267.1497 15.08858563 68261,6917.824,95.436,540.686,538.691,0.0
53244.0,STARLINK-4125,PAYLOAD,2023-10-14 09:51:05,15.08833466,0.0002102,53.2169,182.3771,91.6056,268.5177,-0.00010132,-1.9e-05,0.0,0 STARLINK-4125,1 53244U 22086C   23287.41048496 -.00001900  00000-0 -10132-3 0  9996,2 53244  53.2169 182.3771 0002102  91.6056 268.5177 15.08833466 68304,6917.9,95.438,541.22,538.311,0.0
53244.0,STARLINK-4125,PAYLOAD,2023-10-14 20:58:48,15.08833693,0.0001369,53.2172,180.2978,100.8387,259.2759,-0.00012845,-2.331e-05,0.0,0 STARLINK-4125,1 53244U 22086C   23287.87417294 -.00002331  00000-0 -12845-3 0  9994,2 53244  53.2172 180.2978 0001369 100.8387 259.2759 15.08833693 68875,6917.9,95.438,540.712,538.818,0.0
53244.0,STARLINK-4125,PAYLOAD,2023-10-15 01:44:57,15.08840611,0.0001323,53.2169,179.4059,97.2077,262.9066,-5.5272e-05,-1.167e-05,0.0,0 STARLINK-4125,1 53244U 22086C   23288.07288680 -.00001167  00000-0 -55272-4 0  9990,2 53244  53.2169 179.4059 0001323  97.2077 262.9066 15.08840611 68900,6917.879,95.438,540.659,538.828,0.0
53244.0,STARLINK-4125,PAYLOAD,2023-10-15 20:49:35,15.08838688,0.0001252,53.2159,175.8379,99.1331,260.9803,-0.00010365,-1.937e-05,0.0,0 STARLINK-4125,1 53244U 22086C   23288.86776624 -.00001937  00000-0 -10365-3 0  9995,2 53244  53.2159 175.8379 0001252  99.1331 260.9803 15.08838688 68525,6917.884,95.438,540.616,538.883,0.0
53244.0,STARLINK-4125,PAYLOAD,2023-10-16 01:35:44,15.08850628,0.0001255,53.2169,174.9457,92.0526,268.061,2.4099e-05,9.6e-07,0.0,0 STARLINK-4125,1 53244U 22086C   23289.06648259  .00000096  00000-0  24099-4 0  9993,2 53244  53.2169 174.9457 0001255  92.0526 268.0610 15.08850628 68550,6917.848,95.437,540.581,538.845,0.0
53244.0,STARLINK-4125,PAYLOAD,2023-10-16 09:32:39,15.08851474,0.0001272,53.2172,173.4591,85.8484,274.2654,2.9296e-05,1.79e-06,0.0,0 STARLINK-4125,1 53244U 22086C   23289.39768113  .00000179  00000-0  29296-4 0  9997,2 53244  53.2172 173.4591 0001272  85.8484 274.2654 15.08851474 69108,6917.845,95.437,540.59,538.83,0.0
53244.0,STARLINK-4125,PAYLOAD,2023-10-17 09:23:27,15.08845605,0.0001184,53.2171,168.9982,89.6873,270.4255,0.00010495,1.383e-05,0.0,0 STARLINK-4125,1 53244U 22086C   23290.39128488  .00001383  00000-0  10495-3 0  9992,2 53244  53.2171 168.9982 0001184  89.6873 270.4255 15.08845605 68750,6917.863,95.437,540.547,538.909,0.0
53244.0,STARLINK-4125,PAYLOAD,2023-10-18 01:17:18,15.08847286,0.0001338,53.2166,166.0254,86.5157,273.5989,0.00010147,1.328e-05,0.0,0 STARLINK-4125,1 53244U 22086C   23291.05368400  .00001328  00000-0  10147-3 0  9999,2 53244  53.2166 166.0254 0001338  86.5157 273.5989 15.08847286 69359,6917.858,95.437,540.649,538.798,0.0
53244.0,STARLINK-4125,PAYLOAD,2023-10-18 09:14:14,15.08840548,0.0001545,53.2178,164.5375,84.9778,275.1391,2.3922e-05,9.3e-07,0.0,0 STARLINK-4125,1 53244U 22086C   23291.38488996  .00000093  00000-0  23922-4 0  9992,2 53244  53.2178 164.5375 0001545  84.9778 275.1391 15.08840548 68909,6917.879,95.438,540.813,538.675,0.0
